$$SOE
2461302.500000000, A.D. 2026-Sep-19 00:00:00.0000, -2.686606209350148E+08, 3.789098575824143E+08, 7.881044193509151E+07,
2461309.500000000, A.D. 2026-Sep-26 00:00:00.0000, -2.781200963946217E+08, 3.731200856839421E+08, 7.768794236198173E+07,
2461316.500000000, A.D. 2026-Oct-03 00:00:00.0000, -2.874512911277551E+08, 3.671580839215884E+08, 7.652945415552177E+07,
2461323.500000000, A.D. 2026-Oct-10 00:00:00.0000, -2.966505045529897E+08, 3.610273917816774E+08, 7.533567568945405E+07,
2461330.500000000, A.D. 2026-Oct-17 00:00:00.0000, -3.057141692429461E+08, 3.547316415024028E+08, 7.410732530783628E+07,
2461337.500000000, A.D. 2026-Oct-24 00:00:00.0000, -3.146388536492391E+08, 3.482745517296219E+08, 7.284514005981021E+07,
2461344.500000000, A.D. 2026-Oct-31 00:00:00.0000, -3.234212643714350E+08, 3.416599209472485E+08, 7.154987439564969E+07,
2461351.500000000, A.D. 2026-Nov-07 00:00:00.0000, -3.320582476327461E+08, 3.348916207808311E+08, 7.022229880409281E+07,
2461358.500000000, A.D. 2026-Nov-14 00:00:00.0000, -3.405467897654251E+08, 3.279735900855334E+08, 6.886319845009822E+07,
2461365.500000000, A.D. 2026-Nov-21 00:00:00.0000, -3.488840185239765E+08, 3.209098305241077E+08, 6.747337204006483E+07,
2461372.500000000, A.D. 2026-Nov-28 00:00:00.0000, -3.570672062316886E+08, 3.137044006508235E+08, 6.605363076531142E+07,
2461379.500000000, A.D. 2026-Dec-05 00:00:00.0000, -3.650937711475582E+08, 3.063614078663524E+08, 6.460479694267474E+07,
2461386.500000000, A.D. 2026-Dec-12 00:00:00.0000, -3.729612768982425E+08, 2.988850013733328E+08, 6.312770259570439E+07,
2461393.500000000, A.D. 2026-Dec-19 00:00:00.0000, -3.806674318748817E+08, 2.912793661590300E+08, 6.162318815465112E+07,
2461400.500000000, A.D. 2026-Dec-26 00:00:00.0000, -3.882100887491629E+08, 2.835487171564603E+08, 6.009210122148745E+07,
2461407.500000000, A.D. 2027-Jan-02 00:00:00.0000, -3.955872438446608E+08, 2.756972934098331E+08, 5.853529536257945E+07,
2461414.500000000, A.D. 2027-Jan-09 00:00:00.0000, -4.027970362594762E+08, 2.677293522788268E+08, 5.695362892307472E+07,
2461421.500000000, A.D. 2027-Jan-16 00:00:00.0000, -4.098377467194701E+08, 2.596491637028596E+08, 5.534796386341345E+07,
2461428.500000000, A.D. 2027-Jan-23 00:00:00.0000, -4.167077961326330E+08, 2.514610044966277E+08, 5.371916461333050E+07,
2461435.500000000, A.D. 2027-Jan-30 00:00:00.0000, -4.234057436749085E+08, 2.431691526392729E+08, 5.206809692493509E+07,
2461442.500000000, A.D. 2027-Feb-06 00:00:00.0000, -4.299302840013264E+08, 2.347778819067767E+08, 5.039562671612844E+07,
2461449.500000000, A.D. 2027-Feb-13 00:00:00.0000, -4.362802440612288E+08, 2.262914580758472E+08, 4.870261904825056E+07,
2461456.500000000, A.D. 2027-Feb-20 00:00:00.0000, -4.424545818999646E+08, 2.177141359159209E+08, 4.698993739169201E+07,
2461463.500000000, A.D. 2027-Feb-27 00:00:00.0000, -4.484523860682210E+08, 2.090501537624902E+08, 4.525844278995958E+07,
2461470.500000000, A.D. 2027-Mar-06 00:00:00.0000, -4.542728726351331E+08, 2.003037275982416E+08, 4.350899280313543E+07,
2461477.500000000, A.D. 2027-Mar-13 00:00:00.0000, -4.599153814205852E+08, 1.914790466923927E+08, 4.174244054545160E+07,
2461484.500000000, A.D. 2027-Mar-20 00:00:00.0000, -4.653793725931186E+08, 1.825802699645818E+08, 3.995963385286888E+07,
2461491.500000000, A.D. 2027-Mar-27 00:00:00.0000, -4.706644234476551E+08, 1.736115225253107E+08, 3.816141451763962E+07,
2461498.500000000, A.D. 2027-Apr-03 00:00:00.0000, -4.757702251752790E+08, 1.645768923450383E+08, 3.634861756747893E+07,
2461505.500000000, A.D. 2027-Apr-10 00:00:00.0000, -4.806965795784309E+08, 1.554804270737810E+08, 3.452207058553417E+07,
2461512.500000000, A.D. 2027-Apr-17 00:00:00.0000, -4.854433957235074E+08, 1.463261309949138E+08, 3.268259306767870E+07,
2461519.500000000, A.D. 2027-Apr-24 00:00:00.0000, -4.900106864650538E+08, 1.371179620482727E+08, 3.083099580430776E+07,
2461526.500000000, A.D. 2027-May-01 00:00:00.0000, -4.943985645545333E+08, 1.278598289468945E+08, 2.896808026077791E+07,
2461533.500000000, A.D. 2027-May-08 00:00:00.0000, -4.986072380380691E+08, 1.185555891314952E+08, 2.709463798865526E+07,
2461540.500000000, A.D. 2027-May-15 00:00:00.0000, -5.026370064514244E+08, 1.092090485109640E+08, 2.521145028204552E+07,
2461547.500000000, A.D. 2027-May-22 00:00:00.0000, -5.064882593877933E+08, 9.982396039192572E+07, 2.331928800962221E+07,
2461554.500000000, A.D. 2027-May-29 00:00:00.0000, -5.101614740930031E+08, 9.040402212426919E+07, 2.141891119352014E+07,
2461561.500000000, A.D. 2027-Jun-05 00:00:00.0000, -5.136572112112291E+08, 8.095287258854234E+07, 1.951106850875284E+07,
2461568.500000000, A.D. 2027-Jun-12 00:00:00.0000, -5.169761106967659E+08, 7.147409094970743E+07, 1.759649692135217E+07,
2461575.500000000, A.D. 2027-Jun-19 00:00:00.0000, -5.201188882316887E+08, 6.197119573521642E+07, 1.567592141795876E+07,
2461582.500000000, A.D. 2027-Jun-26 00:00:00.0000, -5.230863318779421E+08, 5.244764396954736E+07, 1.375005477867448E+07,
2461589.500000000, A.D. 2027-Jul-03 00:00:00.0000, -5.258792988384870E+08, 4.290683036679278E+07, 1.181959738053572E+07,
2461596.500000000, A.D. 2027-Jul-10 00:00:00.0000, -5.284987122966476E+08, 3.335208658303273E+07, 9.885237027733341E+06,
2461603.500000000, A.D. 2027-Jul-17 00:00:00.0000, -5.309455583027395E+08, 2.378668048250943E+07, 7.947648800860130E+06,
2461610.500000000, A.D. 2027-Jul-24 00:00:00.0000, -5.332208825564556E+08, 1.421381534767486E+07, 6.007494904483189E+06,
2461617.500000000, A.D. 2027-Jul-31 00:00:00.0000, -5.353257866778717E+08, 4.636629261554854E+06, 4.065424493317177E+06,
2461624.500000000, A.D. 2027-Aug-07 00:00:00.0000, -5.372614241714401E+08, -4.941804192939810E+06, 2.122073588250880E+06,
2461631.500000000, A.D. 2027-Aug-14 00:00:00.0000, -5.390289983875762E+08, -1.451847417728860E+07, 1.780652712024366E+05,
2461638.500000000, A.D. 2027-Aug-21 00:00:00.0000, -5.406297618674862E+08, -2.409043315616439E+07, -1.765990174304264E+06,
2461645.500000000, A.D. 2027-Aug-28 00:00:00.0000, -5.420650136428324E+08, -3.365479857318974E+07, -3.709495394615397E+06,
2461652.500000000, A.D. 2027-Sep-04 00:00:00.0000, -5.433360956718862E+08, -4.320875314708247E+07, -5.651866058038868E+06,
2461659.500000000, A.D. 2027-Sep-11 00:00:00.0000, -5.444443898077016E+08, -5.274954445600265E+07, -7.592530835095223E+06,
2461666.500000000, A.D. 2027-Sep-18 00:00:00.0000, -5.453913151657312E+08, -6.227448446670672E+07, -9.530931333778460E+06,
2461673.500000000, A.D. 2027-Sep-25 00:00:00.0000, -5.461783256624930E+08, -7.178094909222305E+07, -1.146652201861195E+07,
2461680.500000000, A.D. 2027-Oct-02 00:00:00.0000, -5.468069076505889E+08, -8.126637775641561E+07, -1.339877011954885E+07,
2461687.500000000, A.D. 2027-Oct-09 00:00:00.0000, -5.472785776280860E+08, -9.072827297558740E+07, -1.532715553456113E+07,
2461694.500000000, A.D. 2027-Oct-16 00:00:00.0000, -5.475948799595636E+08, -1.001642000171123E+08, -1.725117073758885E+07,
2461701.500000000, A.D. 2027-Oct-23 00:00:00.0000, -5.477573843490556E+08, -1.095717866453189E+08, -1.917032071746558E+07,
2461708.500000000, A.D. 2027-Oct-30 00:00:00.0000, -5.477676826896207E+08, -1.189487223484352E+08, -2.108412293349753E+07,
2461715.500000000, A.D. 2027-Nov-06 00:00:00.0000, -5.476273864517500E+08, -1.282927559225441E+08, -2.299210708985928E+07,
2461722.500000000, A.D. 2027-Nov-13 00:00:00.0000, -5.473381265948697E+08, -1.376016934931291E+08, -2.489381471742003E+07,
2461729.500000000, A.D. 2027-Nov-20 00:00:00.0000, -5.469015530994271E+08, -1.468733991641947E+08, -2.678879900876068E+07,
2461736.500000000, A.D. 2027-Nov-27 00:00:00.0000, -5.463193325006357E+08, -1.561057953337935E+08, -2.867662481322736E+07,
2461743.500000000, A.D. 2027-Dec-04 00:00:00.0000, -5.455931454450684E+08, -1.652968617653956E+08, -3.055686853236024E+07,
2461750.500000000, A.D. 2027-Dec-11 00:00:00.0000, -5.447246848185645E+08, -1.744446343828543E+08, -3.242911794464231E+07,
2461757.500000000, A.D. 2027-Dec-18 00:00:00.0000, -5.437156541689367E+08, -1.835472041316904E+08, -3.429297201317171E+07,
2461764.500000000, A.D. 2027-Dec-25 00:00:00.0000, -5.425677662700270E+08, -1.926027159120000E+08, -3.614804069098334E+07,
2461771.500000000, A.D. 2028-Jan-01 00:00:00.0000, -5.412827417840247E+08, -2.016093675712039E+08, -3.799394472714330E+07,
$$EOE